[{"OBJECT_NAME":"QUICK3","OBJECT_ID":"2025-135AG","EPOCH":"2026-03-09T21:40:49.946304","MEAN_MOTION":15.24606762,"ECCENTRICITY":0.00063908,"INCLINATION":97.4614,"RA_OF_ASC_NODE":185.4931,"ARG_OF_PERICENTER":144.4818,"MEAN_ANOMALY":215.6846,"EPHEMERIS_TYPE":0,"CLASSIFICATION_TYPE":"U","NORAD_CAT_ID":64558,"ELEMENT_SET_NO":999,"REV_AT_EPOCH":3971,"BSTAR":0.00070513701,"MEAN_MOTION_DOT":0.00017352,"MEAN_MOTION_DDOT":0},{"OBJECT_NAME":"BANDWAGON-4 OBJECT D","OBJECT_ID":"2025-248D","EPOCH":"2026-03-08T15:55:23.357856","MEAN_MOTION":15.20246176,"ECCENTRICITY":0.0005553,"INCLINATION":45.4053,"RA_OF_ASC_NODE":299.733,"ARG_OF_PERICENTER":216.9625,"MEAN_ANOMALY":143.088,"EPHEMERIS_TYPE":0,"CLASSIFICATION_TYPE":"U","NORAD_CAT_ID":66296,"ELEMENT_SET_NO":999,"REV_AT_EPOCH":1922,"BSTAR":0.00048956709,"MEAN_MOTION_DOT":0.00010544,"MEAN_MOTION_DDOT":0}]
